{
    "links": {
        "self": "http://www.neowsapp.com/rest/v1/neo/3826774?api_key=iIulBulltgU6a56xZRHN4H3l9WmuAYTsLGpBGhQ2"
    },
    "id": "3826774",
    "neo_reference_id": "3826774",
    "name": "(2018 PL21)",
    "designation": "2018 PL21",
    "nasa_jpl_url": "http://ssd.jpl.nasa.gov/sbdb.cgi?sstr=3826774",
    "absolute_magnitude_h": 23.4,
    "estimated_diameter": {
        "kilometers": {
            "estimated_diameter_min": 0.0555334912,
            "estimated_diameter_max": 0.1241766613
        },
        "meters": {
            "estimated_diameter_min": 55.5334911581,
            "estimated_diameter_max": 124.1766612574
        },
        "miles": {
            "estimated_diameter_min": 0.0345069009,
            "estimated_diameter_max": 0.0771597762
        },
        "feet": {
            "estimated_diameter_min": 182.1964991311,
            "estimated_diameter_max": 407.4037573197
        }
    },
    "is_potentially_hazardous_asteroid": false,
    "close_approach_data": [
        {
            "close_approach_date": "2018-08-28",
            "close_approach_date_full": "2018-Aug-28 09:27",
            "epoch_date_close_approach": 1535448420000,
            "relative_velocity": {
                "kilometers_per_second": "15.3967404556",
                "kilometers_per_hour": "55428.2656400405",
                "miles_per_hour": "34440.9687250574"
            },
            "miss_distance": {
                "astronomical": "0.1898345332",
                "lunar": "73.8456334148",
                "kilometers": "28398841.819164284",
                "miles": "17646222.0402397592"
            },
            "orbiting_body": "Earth"
        },
        {
            "close_approach_date": "2019-01-17",
            "close_approach_date_full": "2019-Jan-17 00:32",
            "epoch_date_close_approach": 1547685120000,
            "relative_velocity": {
                "kilometers_per_second": "12.5827809298",
                "kilometers_per_hour": "45298.0113474308",
                "miles_per_hour": "28146.4226619633"
            },
            "miss_distance": {
                "astronomical": "0.423019926",
                "lunar": "164.554751214",
                "kilometers": "63282879.89715762",
                "miles": "39322158.175390356"
            },
            "orbiting_body": "Earth"
        }
    ],
    "orbital_data": {
        "orbit_id": "2",
        "orbit_determination_date": "2019-07-17 06:12:48",
        "first_observation_date": "2018-08-08",
        "last_observation_date": "2018-08-14",
        "data_arc_in_days": 6,
        "observations_used": 17,
        "orbit_uncertainty": "8",
        "minimum_orbit_intersection": ".186485",
        "jupiter_tisserand_invariant": "3.935",
        "epoch_osculation": "2458342.5",
        "eccentricity": ".4681731801861007",
        "semi_major_axis": "1.732054436100965",
        "inclination": "24.06961127710482",
        "ascending_node_longitude": "317.8097780404608",
        "orbital_period": "832.6082937185338",
        "perihelion_distance": ".9211530024961327",
        "perihelion_argument": "84.3481510924741",
        "aphelion_distance": "2.542955869705796",
        "perihelion_time": "2458417.520248765623",
        "mean_anomaly": "327.5630308280905",
        "mean_motion": ".4323761878376139",
        "equinox": "J2000",
        "orbit_class": {
            "orbit_class_type": "APO",
            "orbit_class_description": "Near-Earth asteroid orbits which cross the Earth’s orbit similar to that of 1862 Apollo",
            "orbit_class_range": "a (semi-major axis) > 1.0 AU; q (perihelion) < 1.017 AU"
        }
    },
    "is_sentry_object": false
}